QIANFAN-105             
1 66047U 25233Q   26002.82720205  .00000311  00000+0  23954-3 0  9994
2 66047  88.9944  59.8358 0014458 343.5583  16.5120 13.90524938 10929
QIANFAN-106             
1 66048U 25233R   26002.83649907  .00000167  00000+0  21462-3 0  9996
2 66048  88.9928  59.9410 0014143 340.6401  19.4215 13.57813458 10861
QIANFAN-107             
1 66049U 25233S   26002.84177998  .00000071  00000+0  82411-4 0  9990
2 66049  88.9943  59.9459 0013883 345.2796  14.7953 13.57809960 10860
QIANFAN-108             
1 66050U 25233T   26002.82292274  .00000062  00000+0  69834-4 0  9999
2 66050  88.9933  59.9417 0013956 345.4101  14.6649 13.57298633 10868
